{"spkid": "50825064", "covariance": {"epoch": "2458821.5", "labels": ["e", "q", "tp", "node", "peri", "i"], "elements": [{"name": "e", "sigma": 2.95474108984257e-08, "units": null, "value": ".2072908394283783", "title": "eccentricity", "label": "e"}, {"name": "q", "sigma": 3.20569942099127e-08, "title": "perihelion distance", "value": ".9232396855169331", "units": "au", "label": "q"}, {"label": "tp", "name": "tp", "sigma": 1.68417808378553e-05, "units": "TDB", "title": "time of perihelion passage", "value": "2458802.470272034463"}, {"label": "node", "units": "deg", "value": "84.71825299977341", "title": "longitude of the ascending node", "sigma": 8.73058466271489e-06, "name": "om"}, {"name": "w", "sigma": 1.42448532519177e-05, "title": "argument of perihelion", "value": "243.2285184841703", "units": "deg", "label": "peri"}, {"label": "i", "title": "inclination", "value": "14.48346780181248", "units": "deg", "name": "i", "sigma": 1.54910834566769e-05}], "data": [["8.730494908004056E-16", "-9.451194665906601E-16", "9.838026620978493E-14", "3.146974884301898E-14", "9.381389842390406E-14", "-1.620943391175975E-14"], ["-9.451194665906601E-16", "1.027650877774379E-15", "-1.029314588224262E-13", "-3.263085809202551E-14", "-1.012531310416052E-13", "1.318051211940574E-14"], ["9.838026620978493E-14", "-1.029314588224262E-13", "2.836455817903498E-10", "2.597862518279524E-11", "1.890990206571658E-10", "1.251511556083173E-10"], ["3.146974884301898E-14", "-3.263085809202551E-14", "2.597862518279524E-11", "7.62231085528324E-11", "-5.42467636309748E-11", "-6.73058843690207E-11"], ["9.381389842390406E-14", "-1.012531310416052E-13", "1.890990206571658E-10", "-5.42467636309748E-11", "2.029158441686715E-10", "1.526688875580965E-10"], ["-1.620943391175975E-14", "1.318051211940574E-14", "1.251511556083173E-10", "-6.73058843690207E-11", "1.526688875580965E-10", "2.399736666617277E-10"]]}, "elements": [{"label": "e", "name": "e", "sigma": "2.9502E-8", "title": "eccentricity", "value": ".207381794579803", "units": null}, {"label": "a", "units": "au", "title": "semi-major axis", "value": "1.164783461780865", "sigma": "3.9713E-9", "name": "a"}, {"sigma": "3.2105E-8", "name": "q", "units": "au", "value": ".9232285771798742", "title": "perihelion distance", "label": "q"}, {"label": "i", "title": "inclination; angle with respect to x-y ecliptic plane", "value": "14.48349985413138", "units": "deg", "name": "i", "sigma": "1.5491E-5"}, {"sigma": "8.707E-6", "name": "om", "value": "84.6706986170762", "title": "longitude of the ascending node", "units": "deg", "label": "node"}, {"units": "deg", "title": "argument of perihelion", "value": "243.2505436345199", "name": "w", "sigma": "1.4255E-5", "label": "peri"}, {"title": "mean anomaly", "value": "80.42856329985564", "units": "deg", "sigma": "1.8067E-5", "name": "ma", "label": "M"}, {"label": "tp", "name": "tp", "sigma": "2.2682E-5", "title": "time of perihelion passage", "value": "2461097.917322453970", "units": "TDB"}, {"sigma": "2.3482E-6", "name": "per", "value": "459.1622975893305", "title": "sidereal orbital period", "units": "d", "label": "period"}, {"label": "n", "value": ".7840364984016607", "title": "mean motion", "units": "deg/d", "name": "n", "sigma": "4.0097E-9"}, {"units": "au", "title": "aphelion distance", "value": "1.406338346381857", "sigma": "4.7949E-9", "name": "ad", "label": "Q"}], "epoch": "2461200.5"}